0 METEOR 2-5 DEB
1 38272U 79095BS  13272.74505103  .00002001  00000-0  11232-2 0   773
2 38272 081.1911 064.0473 0017579 028.5421 331.7008 14.10160522118688
0 METEOR 2-5 DEB
1 38272U 79095BS  13285.65830565  .00002532  00000-0  14217-2 0   786
2 38272 081.2059 051.4405 0015199 010.5291 350.0969 14.10229319120503
0 METEOR 2-5 DEB
1 38272U 79095BS  13286.08391031  .00002593  00000-0  14563-2 0   796
2 38272 081.2103 051.0323 0014769 008.1796 351.9658 14.10232423120564
